NORAD_CAT_ID,OBJECT_NAME,OBJECT_TYPE,EPOCH,MEAN_MOTION,ECCENTRICITY,INCLINATION,RA_OF_ASC_NODE,ARG_OF_PERICENTER,MEAN_ANOMALY,BSTAR,MEAN_MOTION_DOT,MEAN_MOTION_DDOT,TLE_LINE0,TLE_LINE1,TLE_LINE2,SEMIMAJOR_AXIS,PERIOD,APOGEE,PERIGEE,DECAYED
52830.0,STARLINK-4091,PAYLOAD,2024-04-16 16:58:02,15.0885342,5.6e-05,53.2149,260.7409,83.6987,276.4068,0.00019013,2.741e-05,0.0,0 STARLINK-4091,1 52830U 22062A   24107.70697000  .00002741  00000-0  19013-3 0  9994,2 52830  53.2149 260.7409 0000560  83.6987 276.4068 15.08853420101319,6917.839,95.437,540.092,539.317,0.0
52830.0,STARLINK-4091,PAYLOAD,2024-04-17 13:38:04,15.08826861,9.24e-05,53.2151,256.878,82.095,278.0147,-0.00013733,-2.472e-05,0.0,0 STARLINK-4091,1 52830U 22062A   24108.56810495 -.00002472  00000-0 -13733-3 0  9990,2 52830  53.2151 256.8780 0000924  82.0950 278.0147 15.08826861101952,6917.921,95.438,540.425,539.146,0.0
52830.0,STARLINK-4091,PAYLOAD,2024-04-17 16:48:50,15.0882992,0.0001045,53.2157,256.2829,93.0703,267.0408,-9.9014e-05,-1.863e-05,0.0,0 STARLINK-4091,1 52830U 22062A   24108.70058410 -.00001863  00000-0 -99014-4 0  9997,2 52830  53.2157 256.2829 0001045  93.0703 267.0408 15.08829920101462,6917.911,95.438,540.499,539.053,0.0
52830.0,STARLINK-4091,PAYLOAD,2024-04-18 13:28:51,15.08837729,9.5e-05,53.2151,252.4195,90.9219,269.1882,0.00017111,2.436e-05,0.0,0 STARLINK-4091,1 52830U 22062A   24109.56170732  .00002436  00000-0  17111-3 0  9996,2 52830  53.2151 252.4195 0000950  90.9219 269.1882 15.08837729102109,6917.887,95.438,540.41,539.095,0.0
52830.0,STARLINK-4091,PAYLOAD,2024-04-19 13:19:38,15.08846618,0.000107,53.2134,247.9556,81.9639,278.1475,0.00031474,4.726e-05,0.0,0 STARLINK-4091,1 52830U 22062A   24110.55530395  .00004726  00000-0  31474-3 0  9994,2 52830  53.2134 247.9556 0001070  81.9639 278.1475 15.08846618101744,6917.86,95.437,540.465,538.985,0.0
52830.0,STARLINK-4091,PAYLOAD,2024-04-19 19:41:10,15.08864918,9.1e-05,53.2141,246.7649,89.8797,270.2299,0.00058651,9.065e-05,0.0,0 STARLINK-4091,1 52830U 22062A   24110.82025572  .00009065  00000-0  58651-3 0  9997,2 52830  53.2141 246.7649 0000910  89.8797 270.2299 15.08864918102297,6917.804,95.436,540.299,539.04,0.0
52830.0,STARLINK-4091,PAYLOAD,2024-04-20 13:10:25,15.08842154,0.0001148,53.2143,243.497,98.5903,261.5219,2.9733e-05,1.85e-06,0.0,0 STARLINK-4091,1 52830U 22062A   24111.54890047  .00000185  00000-0  29733-4 0  9998,2 52830  53.2143 243.4970 0001148  98.5903 261.5219 15.08842154102406,6917.874,95.437,540.533,538.945,0.0
52830.0,STARLINK-4091,PAYLOAD,2024-04-20 14:45:49,15.08794869,0.000136,53.2147,243.2024,81.3813,278.7333,-0.0011736,-0.00018894,0.0,0 STARLINK-4091,1 52830U 22062A   24111.61515104 -.00018894  00000-0 -11736-2 0  9994,2 52830  53.2147 243.2024 0001360  81.3813 278.7333 15.08794869101904,6918.018,95.44,540.824,538.942,0.0
52830.0,STARLINK-4091,PAYLOAD,2024-04-20 17:56:35,15.08796462,0.0001362,53.2145,242.6059,116.2459,243.8674,-0.0010387,-0.00016761,0.0,0 STARLINK-4091,1 52830U 22062A   24111.74763165 -.00016761  00000-0 -10387-2 0  9992,2 52830  53.2145 242.6059 0001362 116.2459 243.8674 15.08796462102430,6918.013,95.44,540.821,538.936,0.0
52830.0,STARLINK-4091,PAYLOAD,2024-04-21 14:36:36,15.088505,0.0001452,53.2155,238.7355,118.213,241.9009,0.00071649,0.00011137,0.0,0 STARLINK-4091,1 52830U 22062A   24112.60875369  .00011137  00000-0  71649-3 0  9997,2 52830  53.2155 238.7355 0001452 118.2130 241.9009 15.08850500102057,6917.848,95.437,540.718,538.709,0.0
52830.0,STARLINK-4091,PAYLOAD,2024-04-21 16:11:59,15.08850866,0.0001542,53.216,238.4374,81.7032,278.4135,0.00074716,0.00011627,0.0,0 STARLINK-4091,1 52830U 22062A   24112.67499686  .00011627  00000-0  74716-3 0  9990,2 52830  53.2160 238.4374 0001542  81.7032 278.4135 15.08850866102573,6917.847,95.437,540.779,538.645,0.0
52830.0,STARLINK-4091,PAYLOAD,2024-04-22 17:38:08,15.08881392,0.0001166,53.2157,233.6827,98.5301,261.5824,0.0013087,0.00020625,0.0,0 STARLINK-4091,1 52830U 22062A   24113.73482490  .00020625  00000-0  13087-2 0  9994,2 52830  53.2157 233.6827 0001166  98.5301 261.5824 15.08881392102730,6917.754,95.435,540.425,538.812,0.0
52830.0,STARLINK-4091,PAYLOAD,2024-04-23 12:42:47,15.08838915,0.0001821,53.2171,230.1176,74.5691,285.5503,-0.00024943,-4.256e-05,0.0,0 STARLINK-4091,1 52830U 22062A   24114.52971454 -.00004256  00000-0 -24943-3 0  9993,2 52830  53.2171 230.1176 0001821  74.5691 285.5503 15.08838915102855,6917.884,95.438,541.008,538.489,0.0
52830.0,STARLINK-4091,PAYLOAD,2024-04-23 14:18:10,15.08841316,0.0002011,53.2182,229.8203,66.9143,293.2061,-0.00019056,-3.32e-05,0.0,0 STARLINK-4091,1 52830U 22062A   24114.59595439 -.00003320  00000-0 -19056-3 0  9995,2 52830  53.2182 229.8203 0002011  66.9143 293.2061 15.08841316102351,6917.876,95.437,541.133,538.35,0.0
52830.0,STARLINK-4091,PAYLOAD,2024-04-24 14:08:57,15.08844924,0.0001665,53.2174,225.3578,84.1431,275.9751,-0.00026859,-4.561e-05,0.0,0 STARLINK-4091,1 52830U 22062A   24115.58955300 -.00004561  00000-0 -26859-3 0  9999,2 52830  53.2174 225.3578 0001665  84.1431 275.9751 15.08844924102502,6917.865,95.437,540.882,538.579,0.0
52830.0,STARLINK-4091,PAYLOAD,2024-04-25 12:24:21,15.08846017,0.0001824,53.2174,221.1967,87.6624,272.4577,0.00030559,4.58e-05,0.0,0 STARLINK-4091,1 52830U 22062A   24116.51691876  .00004580  00000-0  30559-3 0  9999,2 52830  53.2174 221.1967 0001824  87.6624 272.4577 15.08846017102645,6917.862,95.437,540.989,538.465,0.0
52830.0,STARLINK-4091,PAYLOAD,2024-04-26 05:53:36,15.08842348,0.0001862,53.217,217.929,85.6766,274.4439,0.00015128,2.12e-05,0.0,0 STARLINK-4091,1 52830U 22062A   24117.24556106  .00002120  00000-0  15128-3 0  9999,2 52830  53.2170 217.9290 0001862  85.6766 274.4439 15.08842348103261,6917.873,95.437,541.026,538.45,0.0
52830.0,STARLINK-4091,PAYLOAD,2024-04-26 13:50:32,15.08843683,0.0001419,53.2147,216.4395,96.1335,263.9819,0.00011649,1.567e-05,0.0,0 STARLINK-4091,1 52830U 22062A   24117.57676027  .00001567  00000-0  11649-3 0  9998,2 52830  53.2147 216.4395 0001419  96.1335 263.9819 15.08843683102809,6917.869,95.437,540.716,538.752,0.0
52830.0,STARLINK-4091,PAYLOAD,2024-04-27 12:05:55,15.088215,0.0002013,53.2155,212.274,126.4296,233.6882,-0.00080993,-0.00013149,0.0,0 STARLINK-4091,1 52830U 22062A   24118.50411069 -.00013149  00000-0 -80993-3 0  9994,2 52830  53.2155 212.2740 0002013 126.4296 233.6882 15.08821500103450,6917.937,95.439,541.195,538.409,0.0
52830.0,STARLINK-4091,PAYLOAD,2024-04-27 13:41:18,15.08815122,0.0001584,53.2152,211.9764,102.1495,257.9675,-0.00090259,-0.00014614,0.0,0 STARLINK-4091,1 52830U 22062A   24118.57035424 -.00014614  00000-0 -90259-3 0  9992,2 52830  53.2152 211.9764 0001584 102.1495 257.9675 15.08815122102959,6917.956,95.439,540.917,538.726,0.0
52830.0,STARLINK-4091,PAYLOAD,2024-04-28 13:32:06,15.08830835,0.0001648,53.2141,207.518,90.3309,269.7872,0.00089994,0.0001406,0.0,0 STARLINK-4091,1 52830U 22062A   24119.56396399  .00014060  00000-0  89994-3 0  9990,2 52830  53.2141 207.5180 0001648  90.3309 269.7872 15.08830835103615,6917.908,95.438,540.913,538.633,0.0
52830.0,STARLINK-4091,PAYLOAD,2024-04-29 11:47:30,15.08847874,0.0001639,53.2131,203.3542,90.1617,269.9563,0.00086262,0.0001347,0.0,0 STARLINK-4091,1 52830U 22062A   24120.49132616  .00013470  00000-0  86262-3 0  9993,2 52830  53.2131 203.3542 0001639  90.1617 269.9563 15.08847874103755,6917.856,95.437,540.855,538.587,0.0
52830.0,STARLINK-4091,PAYLOAD,2024-04-29 22:55:12,15.08847015,0.0001541,53.2133,201.27,95.5059,264.6108,0.0005049,7.758e-05,0.0,0 STARLINK-4091,1 52830U 22062A   24120.95500424  .00007758  00000-0  50490-3 0  9996,2 52830  53.2133 201.2700 0001541  95.5059 264.6108 15.08847015103823,6917.859,95.437,540.79,538.658,0.0
52830.0,STARLINK-4091,PAYLOAD,2024-04-30 11:38:17,15.088479,0.0001641,53.2147,198.8924,88.9178,271.2003,0.00028126,4.192e-05,0.0,0 STARLINK-4091,1 52830U 22062A   24121.48492293  .00004192  00000-0  28126-3 0  9999,2 52830  53.2147 198.8924 0001641  88.9178 271.2003 15.08847900103399,6917.856,95.437,540.856,538.586,0.0
52830.0,STARLINK-4091,PAYLOAD,2024-05-01 11:29:03,15.08852936,0.000163,53.2152,194.432,87.3831,272.7348,0.00025562,3.784e-05,0.0,0 STARLINK-4091,1 52830U 22062A   24122.47851697  .00003784  00000-0  25562-3 0  9993,2 52830  53.2152 194.4320 0001630  87.3831 272.7348 15.08852936103544,6917.841,95.437,540.833,538.578,0.0
52830.0,STARLINK-4091,PAYLOAD,2024-05-02 04:58:18,15.08838826,0.0001636,53.215,191.1608,86.9244,273.1936,-3.1839e-05,-7.95e-06,0.0,0 STARLINK-4091,1 52830U 22062A   24123.20716059 -.00000795  00000-0 -31839-4 0  9993,2 52830  53.2150 191.1608 0001636  86.9244 273.1936 15.08838826104163,6917.884,95.438,540.881,538.617,0.0
52830.0,STARLINK-4091,PAYLOAD,2024-05-02 11:19:51,15.08829391,0.0001465,53.2162,189.9701,91.7013,268.4147,0.00018346,2.632e-05,0.0,0 STARLINK-4091,1 52830U 22062A   24123.47212815  .00002632  00000-0  18346-3 0  9990,2 52830  53.2162 189.9701 0001465  91.7013 268.4147 15.08829391104206,6917.913,95.438,540.791,538.764,0.0
52830.0,STARLINK-4091,PAYLOAD,2024-05-02 20:52:10,15.08839765,0.0001344,53.2155,188.1848,83.6059,276.5087,-1.7663e-05,-5.69e-06,0.0,0 STARLINK-4091,1 52830U 22062A   24123.86956269 -.00000569  00000-0 -17663-4 0  9992,2 52830  53.2155 188.1848 0001344  83.6059 276.5087 15.08839765104262,6917.881,95.438,540.676,538.816,0.0
52830.0,STARLINK-4091,PAYLOAD,2024-05-03 11:10:38,15.08830109,0.0001264,53.2164,185.513,98.5049,261.6087,4.5518e-05,4.36e-06,0.0,0 STARLINK-4091,1 52830U 22062A   24124.46572746  .00000436  00000-0  45518-4 0  9994,2 52830  53.2164 185.5130 0001264  98.5049 261.6087 15.08830109103843,6917.911,95.438,540.65,538.901,0.0
52830.0,STARLINK-4091,PAYLOAD,2024-05-03 20:42:58,15.08824902,0.0001052,53.215,183.7263,85.1618,274.9495,-2.8137e-06,-3.32e-06,0.0,0 STARLINK-4091,1 52830U 22062A   24124.86317460 -.00000332  00000-0 -28137-5 0  9994,2 52830  53.2150 183.7263 0001052  85.1618 274.9495 15.08824902104412,6917.927,95.439,540.519,539.064,0.0
